IRIDIUM 921 [-]         
1 24873U 97034E   24090.58958056  .00025940  00000+0  78264-3 0  9997
2 24873  86.3843 326.8808 0004285 152.5004 207.6474 15.34148961463116
IRIDIUM 26 [-]          
1 24903U 97043A   24090.95474002  .00000811  00000+0  27119-3 0  9999
2 24903  86.3913 296.6087 0002255  91.7604 268.3852 14.36262664393109
IRIDIUM 22 [-]          
1 24907U 97043E   24090.94997966  .00000751  00000+0  25622-3 0  9991
2 24907  86.3921 299.7876 0002032  88.2787 271.8642 14.35156294393182
DUMMY MASS 1 [-]        
1 24925U 97048A   24090.95423576  .00000866  00000+0  95755-4 0  9990
2 24925  86.3378 340.1488 0004428 282.0299  78.0429 14.86119119439284
DUMMY MASS 2 [-]        
1 24926U 97048B   24090.97816203  .00000854  00000+0  94894-4 0  9996
2 24926  86.3381 341.6662 0005414 296.9834  63.0837 14.85878255439070
IRIDIUM 29 [-]          
1 24944U 97051A   24090.90776427  .00000731  00000+0  24687-3 0  9992
2 24944  86.3973 329.7398 0001876  86.5842 273.5569 14.35616008389659
IRIDIUM 33 [-]          
1 24946U 97051C   24090.93160725  .00000505  00000+0  17299-3 0  9995
2 24946  86.3886 328.9873 0010039  85.6292 274.6050 14.34300033389196
IRIDIUM 28 [-]          
1 24948U 97051E   24090.89379425  .00000744  00000+0  24685-3 0  9993
2 24948  86.3974 327.5158 0002543  88.6504 271.4984 14.36565055390188
